XRISM                   
1 57800U 23137A   24244.73674478  .00011618  00000+0  84970-3 0  9995
2 57800  31.0014 251.3336 0009960 235.9398 124.0292 15.02379149 54052
